ONEWEB-0080             
1 45426U 20020C   25013.00448222 -.00000089  00000+0 -28773-3 0  9996
2 45426  87.8910 124.7398 0001633 121.7635 238.3652 13.11414195234534
ONEWEB-0090             
1 45427U 20020D   25012.86883400 -.00000519  00000+0 -14991-2 0  9995
2 45427  87.8916 124.7589 0001658 107.2422 252.8888 13.11415438234479
ONEWEB-0061             
1 45428U 20020E   25012.82462449  .00000358  00000+0  97294-3 0  9995
2 45428  87.8911 124.7571 0001634 108.4293 251.7013 13.11417056234420
ONEWEB-0081             
1 45429U 20020F   25012.80610210 -.00000257  00000+0 -76204-3 0  9993
2 45429  87.8913 124.7799 0001419 106.4864 253.6420 13.11418909234531
ONEWEB-0069             
1 45430U 20020G   25013.02483106 -.00003467  00000+0 -98214-2 0  9992
2 45430  87.8906 124.7268 0002121 104.1183 256.0181 13.11415826234509
ONEWEB-0031             
1 45431U 20020H   25012.99600371  .00000371  00000+0  10116-2 0  9997
2 45431  87.8917 124.7525 0001778 106.7363 253.3960 13.11413827234473
ONEWEB-0027             
1 45432U 20020J   25012.76426289 -.00000003  00000+0 -41722-4 0  9990
2 45432  87.9097 109.5345 0002062 103.2386 256.8975 13.17651217237828
ONEWEB-0064             
1 45433U 20020K   25012.84170750  .00000290  00000+0  78247-3 0  9996
2 45433  87.8912 124.7830 0001855 108.3709 251.7620 13.11413335234487
